[{"OBJECT_NAME":"STARLINK-33988","OBJECT_ID":"2025-098N","EPOCH":"2026-03-09T23:26:18.344544","MEAN_MOTION":14.98336028,"ECCENTRICITY":0.00028424,"INCLINATION":69.9995,"RA_OF_ASC_NODE":273.8036,"ARG_OF_PERICENTER":297.4252,"MEAN_ANOMALY":62.6618,"EPHEMERIS_TYPE":0,"CLASSIFICATION_TYPE":"U","NORAD_CAT_ID":63938,"ELEMENT_SET_NO":999,"REV_AT_EPOCH":4659,"BSTAR":0.00025609736,"MEAN_MOTION_DOT":2.964e-5,"MEAN_MOTION_DDOT":0},{"OBJECT_NAME":"FENGYUN 1C DEB","OBJECT_ID":"1999-025ECZ","EPOCH":"2026-03-06T15:56:09.405600","MEAN_MOTION":14.4183664,"ECCENTRICITY":0.02789031,"INCLINATION":98.8006,"RA_OF_ASC_NODE":17.7433,"ARG_OF_PERICENTER":114.6839,"MEAN_ANOMALY":248.3662,"EPHEMERIS_TYPE":0,"CLASSIFICATION_TYPE":"U","NORAD_CAT_ID":37017,"ELEMENT_SET_NO":999,"REV_AT_EPOCH":62370,"BSTAR":0.0010503478,"MEAN_MOTION_DOT":5.43e-5,"MEAN_MOTION_DDOT":0}]
